STARLINK-30848          
1 58240U 23171L   26068.02064189 -.00001460  00000+0 -44759-4 0  9990
2 58240  43.0006 288.8677 0001815 274.3753  85.6891 15.26738956129636
REAL                    
1 64875U 25154G   26068.72233414  .00022901  00000+0  82904-3 0  9994
2 64875  97.4133 137.2581 0001853 118.5876 241.5550 15.28408058 34830
